{"fetched_at":"2026-03-29T02:12:04Z","count":15717,"tles":[{"name":"STARLINK-35734","line1":"1 66225U 25244V   26087.53976510  .00019196  00000+0  65823-3 0  9999","line2":"2 66225  53.1598 142.4862 0001320  82.7243 277.3908 15.30216704 24543","category":"Starlink"}]}